IRIDIUM 177             
1 56727U 23068T   26068.88060990  .00001487  00000+0  19232-3 0  9997
2 56727  86.2006  15.9326 0002320  75.4952 284.6526 14.80207725151675
KUIPER-00138            
1 65964U 25228T   26068.95049752 -.00000004  00000+0  28461-4 0  9991
2 65964  51.9006 341.9402 0000713  86.7972 273.3071 14.79931547 23510
